API VERSION: 1.2
API SOURCE: NASA/JPL Horizons API



*******************************************************************************
Ephemeris / API_USER Sun Dec 15 21:04:38 2024 Pasadena, USA      / Horizons
*******************************************************************************
Target body name: Mars Barycenter (4)             {source: DE441}
Center body name: Solar System Barycenter (0)     {source: DE441}
Center-site name: BODY CENTER
*******************************************************************************
Start time      : A.D. 2020-Nov-01 00:00:00.0000 TDB
Stop  time      : A.D. 2022-Jan-24 00:00:00.0000 TDB
Step-size       : 7200 minutes
*******************************************************************************
Center geodetic : 0.0, 0.0, 0.0                   {E-lon(deg),Lat(deg),Alt(km)}
Center cylindric: 0.0, 0.0, 0.0                   {E-lon(deg),Dxy(km),Dz(km)}
Center radii    : (undefined)
Output units    : KM-S
Calendar mode   : Mixed Julian/Gregorian
Output type     : GEOMETRIC cartesian states
Output format   : 2 (position and velocity)
Reference frame : Ecliptic of J2000.0
*******************************************************************************
            JDTDB,            Calendar Date (TDB),                      X,                      Y,                      Z,                     VX,                     VY,                     VZ,
**************************************************************************************************************************************************************************************************
$$SOE
2459584.500000000, A.D. 2022-Jan-05 00:00:00.0000, -1.236413952673575E+08, -1.931983662437301E+08, -1.032029651207387E+06,  2.138822967381190E+01, -1.087728790828029E+01, -7.521978026369793E-01,
2459589.500000000, A.D. 2022-Jan-10 00:00:00.0000, -1.142783416042940E+08, -1.976954623952756E+08, -1.355773184382737E+06,  2.195294969298834E+01, -9.937015739151361E+00, -7.463434553097730E-01,
2459594.500000000, A.D. 2022-Jan-15 00:00:00.0000, -1.046796375679821E+08, -2.017792059525916E+08, -1.676633872836784E+06,  2.247884410686335E+01, -8.963818625436053E+00, -7.388466745950093E-01,
2459599.500000000, A.D. 2022-Jan-20 00:00:00.0000, -9.486252233321807E+07, -2.054356433523838E+08, -1.993896400440261E+06,  2.296375210530758E+01, -7.958971513898812E+00, -7.296811748529155E-01,
